TIANMU-1 14             
1 58648U 23205D   26147.85460824  .00007105  00000+0  27372-3 0  9996
2 58648  97.3408 168.9608 0009206  53.8661 306.3428 15.26608770134408
TIANMU-1 19             
1 58660U 23208A   26147.83513316  .00009774  00000+0  32652-3 0  9997
2 58660  97.4481 264.0389 0005582  43.8463 316.3221 15.31215574134213
TIANMU-1 20             
1 58661U 23208B   26147.82345257  .00009774  00000+0  31453-3 0  9992
2 58661  97.4423 264.6414 0007869  47.3034 312.8869 15.32407024134301
TIANMU-1 21             
1 58662U 23208C   26147.84206528  .00011653  00000+0  34893-3 0  9992
2 58662  97.4480 267.2539 0007705  40.7276 319.4542 15.34657098134442
TIANMU-1 22             
1 58663U 23208D   26147.74485831  .00003536  00000+0  12167-3 0  9999
2 58663  97.4482 263.8995 0004568  72.1068 288.0671 15.30726137134200
TIANMU-1 15             
1 58700U 24004A   26147.84871524  .00006740  00000+0  25862-3 0  9991
2 58700  97.4668 334.0390 0008388  67.0580 293.1542 15.26778070132675
TIANMU-1 16             
1 58701U 24004B   26147.83429377  .00006301  00000+0  24403-3 0  9999
2 58701  97.4614 333.2844 0007422  70.9299 289.2743 15.26504397132678
TIANMU-1 17             
1 58702U 24004C   26147.81974194  .00006400  00000+0  24781-3 0  9999
2 58702  97.4644 333.7473 0007030  75.5675 284.6343 15.26504803132665
TIANMU-1 18             
1 58703U 24004D   26147.86511962  .00006758  00000+0  25954-3 0  9994
2 58703  97.4660 334.0354 0005555  72.8885 287.2962 15.26766663132670
INSAT-3DS               
1 58990U 24033A   26147.73888235 -.00000149  00000+0  00000+0 0  9990
2 58990   0.0274 249.6677 0001586 165.9458 177.7443  1.00272370 46864
METEOR-M2 4             
1 59051U 24039A   26147.85456887  .00000013  00000+0  25367-4 0  9999
2 59051  98.7000 107.4096 0006179 222.4897 137.5803 14.22427208116377
GOES 19                 
1 60133U 24119A   26147.56515306  .00000000  00000+0  00000+0 0  9999
2 60133   0.0214  76.2227 0000666  39.2846 257.8743  1.00269556  6756
MTG-S1                  
1 64723U 25143A   26147.72195184 -.00000025  00000+0  00000+0 0  9990
2 64723   0.6217 334.7470 0001421  30.5154 136.4604  1.00270564  3219
METOP-SGA1              
1 65159U 25172A   26147.79673941  .00000051  00000+0  42982-4 0  9993
2 65159  98.6652 207.8954 0001045  83.8095 276.3201 14.21505887 40895
FENGYUN 3H              
1 65815U 25219A   26147.81722433  .00000055  00000+0  46123-4 0  9993
2 65815  98.6764  88.9834 0001569  92.7326 267.4030 14.19916280 34490
